ENTRYSAT                
1 44429U 98067QP  19303.55485716  .00011868  00000-0  19047-3 0  9998
2 44429  51.6427  48.3558 0002919 183.6881 176.4089 15.53503120 18570
VCC C                   
1 44430U 98067QQ  19303.55414262  .00012794  00000-0  20380-3 0  9999
2 44430  51.6431  48.3522 0002992 196.7929 163.2963 15.53629623 17400
VCC B                   
1 44431U 98067QR  19303.56488774  .00010677  00000-0  17369-3 0  9991
2 44431  51.6426  48.4233 0003138 192.3251 167.7663 15.53246946 18510
